{
  "norad_id": 68372,
  "name": "RASSVET-3 13",
  "history": [
    {
      "epoch": "2026-03-31T15:45:19.160928Z",
      "apogee_km": 323.3704510729094,
      "perigee_km": 288.19565340599365,
      "latitude_deg": -5.275443672358833e-05,
      "longitude_deg": 34.349439292875246,
      "height_km": 296.32379739166106,
      "semi_major_axis_km": 6683.920052239451,
      "eccentricity": 0.0026313,
      "inclination_deg": 82.297,
      "raan_deg": 99.71,
      "arg_perigee_deg": 44.3305,
      "mean_anomaly_deg": 316.0066,
      "mean_motion_rev_day": 15.88751202
    }
  ]
}